# Made by eph2tle, compiled Nov 21 2022 19:22:55
# Run at Sun Nov 27 09:48:25 2022
#
#    The following TLEs (Two-Line Elements) were generated by fitting
# a numerically-integrated ephemeris,  based on the orbit given below,
# to the SDP4/SGP4 models.  Each TLE is good for the interval between
# its epoch and the epoch of the subsequent TLE (usually one day).
# The maximum deviation between the numerically integrated ephemerides
# and the TLE-based ephemeris, in kilometers,  is given for each TLE
# as the "worst residual".
#
#    This fitting is done using the 'eph2tle' code packaged with Find_Orb.
# The code has details on how the TLEs were computed :
#
#    https://github.com/Bill-Gray/find_orb/eph2tle.cpp
#
#    Be warned:  the error given is that between the numerically
# integrated ephems and the TLE model.  There will usually be at
# least some additional difference between the ephems and the actual
# motion of the satellite,  especially if the ephemerides are based
# on a short arc.  If the following orbital elements say something
# like "[based on] 10 observations 2015 Jan. 1-13",  and the TLEs
# are for 2015 May,  the extrapolation may be tenuous at best.  If
# your application requires a specific level of accuracy,  you may
# want to contact me;  I can give you some idea as to the fit of the
# underlying data (and possibly TLEs based on newer data).
#
#   You can usually find the underlying observational data,  and the
# fitted orbit,  residuals,  ephemerides,  and sometimes some comments
# about the object,  among the pages listed at
#
#    https://www.projectpluto.com/pluto/mpecs/pseudo.htm
#
#    WARNING:  for this object,  "normal" TLEs cannot be fitted.  (This
# usually means an object with an hyperbolic or nearly-parabolic orbit.)
# For this and similar cases,   an alternative model is used,  in which
# most of the traditional TLE data is replaced by six signed 8-digit hex
# numbers.  These six numbers are a state vector,  numerically integrated
# using a simplified force model.  This is necessary for objects at L2 or
# L1,  and sometimes for objects in high orbits where the SDP4/SGP4 model
# fails.  Some documentation is in 'get_el.cpp' in the source code at
# https://www.github.com/Bill-Gray/sat_code ; look for 'hex' in that file,
# with the actual integration done in 'sdp4.cpp'.  But be aware:  it's my
# own extension,  doesn't work with other code,  and is therefore used
# only when necessary.
#
#    Also,  if you use a TLE outside the "correct" time range (between
# its MJD and that of the next TLE),  all bets are off.  I've carefully
# computed and minimized the worst error over the "correct" time frame,
# but the ephemeris may (or may not) diverge wildly outside of it.
#
# Ephem range: 59580.000000 59945.000000 1.000000
# Created Sun Nov 27 09:48:14 2022
# Ephemeris start:  1 Jan 2022  0:00:00
# Ephemeris end:    1 Jan 2023  0:00:00
# Times are all TDT
# Positions/velocities are in equatorial J2000
# Orbital elements:  XL8D89E
#    Perigee 2021 Sep 1.2510016 +/- 0.000272 TT =  6:01:26.54 (JD 2459458.7510016)
# Epoch 2021 Sep 28.0 TT; AMR 0.026587 +/- 9.71e-5 m^2/kg          Find_Orb
# M 118.2637254407 +/- 0.0010         (J2000 equator)
# n   4.4212393993 +/- 2.03e-5        Peri.  324.1960602 +/- 0.0012
# a793549.73660 +/- 2.43              Node     3.0770454 +/- 0.00052
# e   0.200570264 +/- 9.63e-6         Incl.   81.9253555 +/- 0.00018
# P  81.42d                  H 30.48  G  0.15   U  5.5
# q 634387.25587 +/- 9.5    Q 952712.21733 +/- 5
# 47 of 60 observations 2021 Sept. 6-2022 Nov. 23; mean residual 8".307
#
# 1 NoradU COSPAR   Epoch.epoch     dn/dt/2  d2n/dt2/6 BSTAR    T El# C
# 2 NoradU Inclina RAAscNode Eccent  ArgPeri MeanAno  MeanMotion Rev# C

# Worst residual: 0.25 km
# MJD 59580.000000 (2022 Jan  1  0:00)
XL8D89E
1 89996U 00000AAD 21365.99919926 -002N92DH +001W6CRN +006CZQQ7H 17926
2 89996                          -0006B1CV +000111LU -0002GR12     00

# Worst residual: 0.37 km
# MJD 59581.000000 (2022 Jan  2  0:00)
XL8D89E
1 89996U 00000AAD 22001.99919926 -0043O8XX +0023WJPT +005NP2UPH 17928
2 89996                          -0005SPQY +0000RA7N -0003D21M     03

# Worst residual: 0.25 km
# MJD 59582.000000 (2022 Jan  3  0:00)
XL8D89E
1 89996U 00000AAD 22002.99919926 -005F0HAE +00299TM0 +004RF8SZH 17929
2 89996                          -000554K7 +0000HIPZ -00042OQ5     07

# Worst residual: 0.15 km
# MJD 59583.000000 (2022 Jan  4  0:00)
XL8D89E
1 89996U 00000AAD 22003.99919926 -006KBO3Y +002CD82C +003PV907H 17923
2 89996                          -0004EW4P +00008F3F -0004L37D     08

# Worst residual: 0.29 km
# MJD 59584.000000 (2022 Jan  5  0:00)
XL8D89E
1 89996U 00000AAD 22004.99919926 -007J8Z65 +002DEBJP +002KPTICH 17924
2 89996                          -0003O85A +00000CXU -0004WSVK     05

# Worst residual: 0.35 km
# MJD 59585.000000 (2022 Jan  6  0:00)
XL8D89E
1 89996U 00000AAD 22005.99919926 -008BVPGZ +002CMSGD +001DG6LLH 17922
2 89996                          -0002YMUV -00006JBO -00052XOQ     01

# Worst residual: 0.49 km
# MJD 59586.000000 (2022 Jan  7  0:00)
XL8D89E
1 89996U 00000AAD 22006.99919926 -008YL6A4 +002ACL2M +000595VEH 17927
2 89996                          -0002AY8L -0000CB9J -00054QCI     04

# Worst residual: 0.46 km
# MJD 59587.000000 (2022 Jan  8  0:00)
XL8D89E
1 89996U 00000AAD 22007.99919926 -009FVLHW +0026SVI3 -0012YR9JH 17920
2 89996                          -0001PIED -0000H3EO -00053BC7     05

# Worst residual: 0.32 km
# MJD 59588.000000 (2022 Jan  9  0:00)
XL8D89E
1 89996U 00000AAD 22008.99919926 -009SANAZ +00227LO6 -002AJX7OH 17924
2 89996                          -00016CCM -0000L176 -0004ZLIP     01

# Worst residual: 0.34 km
# MJD 59589.000000 (2022 Jan 10  0:00)
XL8D89E
1 89996U 00000AAD 22009.99919926 -00A0DFX2 +001WREQC -003H1LY9H 17926
2 89996                          -0000PB5M -0000O9WE -0004U9XE     03

# Worst residual: 0.27 km
# MJD 59590.000000 (2022 Jan 11  0:00)
XL8D89E
1 89996U 00000AAD 22010.99919926 -00A4LJOH +001QLR1L -004M49XGH 17925
2 89996                          -0000A78J -0000QY3Y -0004NUXA     08

# Worst residual: 0.16 km
# MJD 59591.000000 (2022 Jan 12  0:00)
XL8D89E
1 89996U 00000AAD 22011.99919926 -00A5ELB2 +001JV2MU -005PK4NZH 17922
2 89996                          +000037PT -0000T5MT -0004GPNJ     04

# Worst residual: 0.09 km
# MJD 59592.000000 (2022 Jan 13  0:00)
XL8D89E
1 89996U 00000AAD 22012.99919926 -00A368C5 +001CN01U -006R81IVH 17923
2 89996                          +0000F5RF -0000UZI3 -000493CX     09

# Worst residual: 0.08 km
# MJD 59593.000000 (2022 Jan 14  0:00)
XL8D89E
1 89996U 00000AAD 22013.99919926 -009Y89LZ +00150IPE -007R0QT4H 17928
2 89996                          +0000PU8F -0000WI20 -000416G0     06

# Worst residual: 0.10 km
# MJD 59594.000000 (2022 Jan 15  0:00)
XL8D89E
1 89996U 00000AAD 22014.99919926 -009QUUC7 +000X24F6 -008OW8UVH 17920
2 89996                          +0000ZFL3 -0000XR1I -0003T39W     04

# Worst residual: 0.16 km
# MJD 59595.000000 (2022 Jan 16  0:00)
XL8D89E
1 89996U 00000AAD 22015.99919926 -009HANYB +000OTY4U -009KTF1FH 17920
2 89996                          +000183CR -0000YRPL -0003KWR1     01

# Worst residual: 0.21 km
# MJD 59596.000000 (2022 Jan 17  0:00)
XL8D89E
1 89996U 00000AAD 22016.99919926 -0095R7VG +000GDVSZ -00AERP1AH 17920
2 89996                          +0001FY76 -0000ZKWL -0003COQC     02

# Worst residual: 0.25 km
# MJD 59597.000000 (2022 Jan 18  0:00)
XL8D89E
1 89996U 00000AAD 22017.99919926 -008SEYU0 +0007RNL1 -00B6QV73H 17921
2 89996                          +0001N3YP -00010751 -00034GC1     01

# Worst residual: 0.33 km
# MJD 59598.000000 (2022 Jan 19  0:00)
XL8D89E
1 89996U 00000AAD 22018.99919926 -008DFJN3 -0000Z3PJ -00BWQX4OH 17929
2 89996                          +0001TNQS -00010MON -0002W85I     02

# Worst residual: 0.41 km
# MJD 59599.000000 (2022 Jan 20  0:00)
XL8D89E
1 89996U 00000AAD 22019.99919926 -007WXXBV -0009SSSB -00CKRXXCH 17928
2 89996                          +0001ZNYI -00010VMV -0002O0F7     06

# Worst residual: 0.48 km
# MJD 59600.000000 (2022 Jan 21  0:00)
XL8D89E
1 89996U 00000AAD 22020.99919926 -007F2KP8 -000INUPB -00D6U1LXH 17928
2 89996                          +000256F5 -00010XZJ -0002FT52     03

# Worst residual: 0.55 km
# MJD 59601.000000 (2022 Jan 22  0:00)
XL8D89E
1 89996U 00000AAD 22021.99919926 -006VXL9G -000RIO9D -00DQXBI8H 17927
2 89996                          +0002A8EN -00010TP2 -00027M5V     02

# Worst residual: 0.59 km
# MJD 59602.000000 (2022 Jan 23  0:00)
XL8D89E
1 89996U 00000AAD 22022.99919926 -006BMTKI -0010BNWN -00E91TBVH 17923
2 89996                          +0002EUQ2 -00010IQE -0001ZF9R     00

# Worst residual: 0.58 km
# MJD 59603.000000 (2022 Jan 24  0:00)
XL8D89E
1 89996U 00000AAD 22023.99919926 -005Q9Z0C -0019183P -00EP7IT0H 17920
2 89996                          +0002J1RQ -0001014Y -0001R88D     01

# Worst residual: 0.46 km
# MJD 59604.000000 (2022 Jan 25  0:00)
XL8D89E
1 89996U 00000AAD 22024.99919926 -0053YP2F -001HLS3S -00F3EDRIH 17925
2 89996                          +0002MTLI -0000ZD2B -0001J0UI     00

# Worst residual: 0.33 km
# MJD 59605.000000 (2022 Jan 26  0:00)
XL8D89E
1 89996U 00000AAD 22025.99919926 -004GSO2E -001PZT78 -00FFMAMOH 17921
2 89996                          +0002Q5Z0 -0000YIU4 -0001ASZY     07

# Worst residual: 0.40 km
# MJD 59606.000000 (2022 Jan 27  0:00)
XL8D89E
1 89996U 00000AAD 22026.99919926 -003SVNB0 -001Y5WEU -00FPV5BOH 17924
2 89996                          +0002T2GD -0000XJ06 -00012KP0     08

# Worst residual: 0.34 km
# MJD 59607.000000 (2022 Jan 28  0:00)
XL8D89E
1 89996U 00000AAD 22027.99919926 -0034BIDN -00262SO6 -00FY4UK3H 17921
2 89996                          +0002VIIF -0000WEE6 -0000UC46     03

# Worst residual: 0.46 km
# MJD 59608.000000 (2022 Jan 29  0:00)
XL8D89E
1 89996U 00000AAD 22028.99919926 -002F89CL -002DPHBB -00G4FDFVH 17927
2 89996                          +0002XHO5 -0000V64F -0000M3N1     06

